CCSDS_OMM_VERS = 2.0
CREATION_DATE  = 
ORIGINATOR     = 

OBJECT_NAME    = DELTA 2 R/B(1)
OBJECT_ID      = 1990-008B
CENTER_NAME    = EARTH
REF_FRAME      = TEME
TIME_SYSTEM    = UTC
MEAN_ELEMENT_THEORY = SGP/SGP4

EPOCH          = 2025-12-08T13:13:03.506592
MEAN_MOTION    = 15.44741263
ECCENTRICITY   = .01117169
INCLINATION    = 35.6070
RA_OF_ASC_NODE = 47.5750
ARG_OF_PERICENTER = 140.3530
MEAN_ANOMALY   = 220.5435

EPHEMERIS_TYPE = 0
CLASSIFICATION_TYPE = U
NORAD_CAT_ID   = 20453
ELEMENT_SET_NO = 999
REV_AT_EPOCH   = 91198
BSTAR          = .88443232E-3
MEAN_MOTION_DOT = .5443E-3
MEAN_MOTION_DDOT = 0

CCSDS_OMM_VERS = 2.0
CREATION_DATE  = 
ORIGINATOR     = 

OBJECT_NAME    = COSMOS 2058
OBJECT_ID      = 1990-010A
CENTER_NAME    = EARTH
REF_FRAME      = TEME
TIME_SYSTEM    = UTC
MEAN_ELEMENT_THEORY = SGP/SGP4

EPOCH          = 2025-12-08T12:26:02.536224
MEAN_MOTION    = 15.10407385
ECCENTRICITY   = .00082442
INCLINATION    = 82.4653
RA_OF_ASC_NODE = 137.1832
ARG_OF_PERICENTER = 291.1476
MEAN_ANOMALY   = 68.8872

EPHEMERIS_TYPE = 0
CLASSIFICATION_TYPE = U
NORAD_CAT_ID   = 20465
ELEMENT_SET_NO = 999
REV_AT_EPOCH   = 92847
BSTAR          = .44328398E-3
MEAN_MOTION_DOT = .7315E-4
MEAN_MOTION_DDOT = 0

CCSDS_OMM_VERS = 2.0
CREATION_DATE  = 
ORIGINATOR     = 

OBJECT_NAME    = SL-14 R/B
OBJECT_ID      = 1990-010B
CENTER_NAME    = EARTH
REF_FRAME      = TEME
TIME_SYSTEM    = UTC
MEAN_ELEMENT_THEORY = SGP/SGP4

EPOCH          = 2025-12-08T11:54:15.564672
MEAN_MOTION    = 14.83465681
ECCENTRICITY   = .00184773
INCLINATION    = 82.5019
RA_OF_ASC_NODE = 353.0330
ARG_OF_PERICENTER = 238.0762
MEAN_ANOMALY   = 121.8656

EPHEMERIS_TYPE = 0
CLASSIFICATION_TYPE = U
NORAD_CAT_ID   = 20466
ELEMENT_SET_NO = 999
REV_AT_EPOCH   = 91496
BSTAR          = .10010634E-3
MEAN_MOTION_DOT = .848E-5
MEAN_MOTION_DDOT = 0

CCSDS_OMM_VERS = 2.0
CREATION_DATE  = 
ORIGINATOR     = 

OBJECT_NAME    = SL-14 R/B
OBJECT_ID      = 1990-018B
CENTER_NAME    = EARTH
REF_FRAME      = TEME
TIME_SYSTEM    = UTC
MEAN_ELEMENT_THEORY = SGP/SGP4

EPOCH          = 2025-12-08T15:05:21.894432
MEAN_MOTION    = 14.82040471
ECCENTRICITY   = .00173381
INCLINATION    = 82.5206
RA_OF_ASC_NODE = 308.2071
ARG_OF_PERICENTER = 36.2844
MEAN_ANOMALY   = 323.9542

EPHEMERIS_TYPE = 0
CLASSIFICATION_TYPE = U
NORAD_CAT_ID   = 20511
ELEMENT_SET_NO = 999
REV_AT_EPOCH   = 90909
BSTAR          = .12224051E-3
MEAN_MOTION_DOT = .996E-5
MEAN_MOTION_DDOT = 0

CCSDS_OMM_VERS = 2.0
CREATION_DATE  = 
ORIGINATOR     = 

OBJECT_NAME    = HST
OBJECT_ID      = 1990-037B
CENTER_NAME    = EARTH
REF_FRAME      = TEME
TIME_SYSTEM    = UTC
MEAN_ELEMENT_THEORY = SGP/SGP4

EPOCH          = 2025-12-08T06:51:05.840928
MEAN_MOTION    = 15.27955239
ECCENTRICITY   = .00018952
INCLINATION    = 28.4697
RA_OF_ASC_NODE = 302.8053
ARG_OF_PERICENTER = 185.8337
MEAN_ANOMALY   = 174.2236

EPHEMERIS_TYPE = 0
CLASSIFICATION_TYPE = U
NORAD_CAT_ID   = 20580
ELEMENT_SET_NO = 999
REV_AT_EPOCH   = 75931
BSTAR          = .34811453E-3
MEAN_MOTION_DOT = .10003E-3
MEAN_MOTION_DDOT = 0

CCSDS_OMM_VERS = 2.0
CREATION_DATE  = 
ORIGINATOR     = 

OBJECT_NAME    = SL-16 R/B
OBJECT_ID      = 1990-046B
CENTER_NAME    = EARTH
REF_FRAME      = TEME
TIME_SYSTEM    = UTC
MEAN_ELEMENT_THEORY = SGP/SGP4

EPOCH          = 2025-12-08T15:29:52.862208
MEAN_MOTION    = 14.15001081
ECCENTRICITY   = .00118597
INCLINATION    = 70.9987
RA_OF_ASC_NODE = 129.1189
ARG_OF_PERICENTER = 80.9289
MEAN_ANOMALY   = 279.3176

EPHEMERIS_TYPE = 0
CLASSIFICATION_TYPE = U
NORAD_CAT_ID   = 20625
ELEMENT_SET_NO = 999
REV_AT_EPOCH   = 83551
BSTAR          = .84024138E-4
MEAN_MOTION_DOT = .115E-5
MEAN_MOTION_DDOT = 0

CCSDS_OMM_VERS = 2.0
CREATION_DATE  = 
ORIGINATOR     = 

OBJECT_NAME    = COSMOS 2084
OBJECT_ID      = 1990-055A
CENTER_NAME    = EARTH
REF_FRAME      = TEME
TIME_SYSTEM    = UTC
MEAN_ELEMENT_THEORY = SGP/SGP4

EPOCH          = 2025-12-08T13:57:16.566336
MEAN_MOTION    = 15.04978864
ECCENTRICITY   = .00323951
INCLINATION    = 62.7912
RA_OF_ASC_NODE = 286.1613
ARG_OF_PERICENTER = 174.2028
MEAN_ANOMALY   = 185.9454

EPHEMERIS_TYPE = 0
CLASSIFICATION_TYPE = U
NORAD_CAT_ID   = 20663
ELEMENT_SET_NO = 999
REV_AT_EPOCH   = 92260
BSTAR          = .37881522E-3
MEAN_MOTION_DOT = .5259E-4
MEAN_MOTION_DDOT = 0

CCSDS_OMM_VERS = 2.0
CREATION_DATE  = 
ORIGINATOR     = 

OBJECT_NAME    = SL-6 R/B(2)
OBJECT_ID      = 1990-055D
CENTER_NAME    = EARTH
REF_FRAME      = TEME
TIME_SYSTEM    = UTC
MEAN_ELEMENT_THEORY = SGP/SGP4

EPOCH          = 2025-12-08T13:49:27.438528
MEAN_MOTION    = 15.03048849
ECCENTRICITY   = .00122903
INCLINATION    = 62.7824
RA_OF_ASC_NODE = 203.5634
ARG_OF_PERICENTER = 305.7317
MEAN_ANOMALY   = 54.2638

EPHEMERIS_TYPE = 0
CLASSIFICATION_TYPE = U
NORAD_CAT_ID   = 20666
ELEMENT_SET_NO = 999
REV_AT_EPOCH   = 92449
BSTAR          = .26225646E-3
MEAN_MOTION_DOT = .336E-4
MEAN_MOTION_DDOT = 0

CCSDS_OMM_VERS = 2.0
CREATION_DATE  = 
ORIGINATOR     = 

OBJECT_NAME    = SL-8 R/B
OBJECT_ID      = 1990-078B
CENTER_NAME    = EARTH
REF_FRAME      = TEME
TIME_SYSTEM    = UTC
MEAN_ELEMENT_THEORY = SGP/SGP4

EPOCH          = 2025-12-08T11:43:23.232576
MEAN_MOTION    = 14.85675097
ECCENTRICITY   = .03733589
INCLINATION    = 82.9050
RA_OF_ASC_NODE = 333.1148
ARG_OF_PERICENTER = 320.2139
MEAN_ANOMALY   = 37.2228

EPHEMERIS_TYPE = 0
CLASSIFICATION_TYPE = U
NORAD_CAT_ID   = 20775
ELEMENT_SET_NO = 999
REV_AT_EPOCH   = 79574
BSTAR          = .85016738E-3
MEAN_MOTION_DOT = .27448E-3
MEAN_MOTION_DDOT = 0

CCSDS_OMM_VERS = 2.0
CREATION_DATE  = 
ORIGINATOR     = 

OBJECT_NAME    = SL-8 R/B
OBJECT_ID      = 1991-006B
CENTER_NAME    = EARTH
REF_FRAME      = TEME
TIME_SYSTEM    = UTC
MEAN_ELEMENT_THEORY = SGP/SGP4

EPOCH          = 2025-12-08T11:42:24.778656
MEAN_MOTION    = 13.77489402
ECCENTRICITY   = .00213531
INCLINATION    = 82.9431
RA_OF_ASC_NODE = 237.8753
ARG_OF_PERICENTER = 292.4528
MEAN_ANOMALY   = 240.4336

EPHEMERIS_TYPE = 0
CLASSIFICATION_TYPE = U
NORAD_CAT_ID   = 21088
ELEMENT_SET_NO = 999
REV_AT_EPOCH   = 75151
BSTAR          = .10570235E-3
MEAN_MOTION_DOT = .12E-5
MEAN_MOTION_DDOT = 0

CCSDS_OMM_VERS = 2.0
CREATION_DATE  = 
ORIGINATOR     = 

OBJECT_NAME    = OKEAN-3
OBJECT_ID      = 1991-039A
CENTER_NAME    = EARTH
REF_FRAME      = TEME
TIME_SYSTEM    = UTC
MEAN_ELEMENT_THEORY = SGP/SGP4

EPOCH          = 2025-12-08T14:58:36.515136
MEAN_MOTION    = 15.04076406
ECCENTRICITY   = .00128543
INCLINATION    = 82.5170
RA_OF_ASC_NODE = 65.0309
ARG_OF_PERICENTER = 281.6211
MEAN_ANOMALY   = 78.3573

EPHEMERIS_TYPE = 0
CLASSIFICATION_TYPE = U
NORAD_CAT_ID   = 21397
ELEMENT_SET_NO = 999
REV_AT_EPOCH   = 85134
BSTAR          = .37822405E-3
MEAN_MOTION_DOT = .527E-4
MEAN_MOTION_DDOT = 0

CCSDS_OMM_VERS = 2.0
CREATION_DATE  = 
ORIGINATOR     = 

OBJECT_NAME    = COSMOS 2151
OBJECT_ID      = 1991-042A
CENTER_NAME    = EARTH
REF_FRAME      = TEME
TIME_SYSTEM    = UTC
MEAN_ELEMENT_THEORY = SGP/SGP4

EPOCH          = 2025-12-08T14:52:35.185152
MEAN_MOTION    = 14.99665307
ECCENTRICITY   = .0012934
INCLINATION    = 82.4959
RA_OF_ASC_NODE = 171.4736
ARG_OF_PERICENTER = 13.3058
MEAN_ANOMALY   = 346.8504

EPHEMERIS_TYPE = 0
CLASSIFICATION_TYPE = U
NORAD_CAT_ID   = 21422
ELEMENT_SET_NO = 999
REV_AT_EPOCH   = 84954
BSTAR          = .27952198E-3
MEAN_MOTION_DOT = .3476E-4
MEAN_MOTION_DDOT = 0

