DELTA 2 R/B(1)          
1 20453U 90008B   25342.55073503  .00054430  00000+0  88443-3 0  9990
2 20453  35.6070  47.5750 0111716 140.3530 220.5435 15.44741263911984
COSMOS 2058             
1 20465U 90010A   25342.51808491  .00007315  00000+0  44328-3 0  9998
2 20465  82.4653 137.1832 0008244 291.1476  68.8872 15.10407385928473
SL-14 R/B               
1 20466U 90010B   25342.49601348  .00000848  00000+0  10011-3 0  9994
2 20466  82.5019 353.0330 0018477 238.0762 121.8656 14.83465681914961
SL-14 R/B               
1 20511U 90018B   25342.62872563  .00000996  00000+0  12224-3 0  9999
2 20511  82.5206 308.2071 0017338  36.2844 323.9542 14.82040471909090
HST                     
1 20580U 90037B   25342.28548427  .00010003  00000+0  34811-3 0  9993
2 20580  28.4697 302.8053 0001895 185.8337 174.2236 15.27955239759310
SL-16 R/B               
1 20625U 90046B   25342.64575072  .00000115  00000+0  84024-4 0  9994
2 20625  70.9987 129.1189 0011859  80.9289 279.3176 14.15001081835516
COSMOS 2084             
1 20663U 90055A   25342.58144174  .00005259  00000+0  37882-3 0  9997
2 20663  62.7912 286.1613 0032395 174.2028 185.9454 15.04978864922606
SL-6 R/B(2)             
1 20666U 90055D   25342.57601202  .00003360  00000+0  26226-3 0  9990
2 20666  62.7824 203.5634 0012290 305.7317  54.2638 15.03048849924492
SL-8 R/B                
1 20775U 90078B   25342.48846334  .00027448  00000+0  85017-3 0  9999
2 20775  82.9050 333.1148 0373358 320.2139  37.2228 14.85675097795747
SL-8 R/B                
1 21088U 91006B   25342.48778679  .00000120  00000+0  10570-3 0  9995
2 21088  82.9431 237.8753 0021353 292.4528 240.4336 13.77489402751515
OKEAN-3                 
1 21397U 91039A   25342.62403374  .00005270  00000+0  37822-3 0  9997
2 21397  82.5170  65.0309 0012854 281.6211  78.3573 15.04076406851348
COSMOS 2151             
1 21422U 91042A   25342.61985168  .00003476  00000+0  27952-3 0  9994
2 21422  82.4959 171.4736 0012934  13.3058 346.8504 14.99665307849548
